NORAD_CAT_ID,OBJECT_NAME,OBJECT_TYPE,EPOCH,MEAN_MOTION,ECCENTRICITY,INCLINATION,RA_OF_ASC_NODE,ARG_OF_PERICENTER,MEAN_ANOMALY,BSTAR,MEAN_MOTION_DOT,MEAN_MOTION_DDOT,TLE_LINE0,TLE_LINE1,TLE_LINE2,SEMIMAJOR_AXIS,PERIOD,APOGEE,PERIGEE,DECAYED
53912.0,STARLINK-5059,PAYLOAD,2023-03-16 11:04:35,15.08815981,6.52e-05,53.216,163.4937,116.4506,243.6553,-0.00071884,-0.00011702,0.0,0 STARLINK-5059,1 53912U 22119AC  23075.46151807 -.00011702  00000-0 -71884-3 0  9998,2 53912  53.2160 163.4937 0000652 116.4506 243.6553 15.08815981 26976,6917.954,95.439,540.27,539.368,0.0
53912.0,STARLINK-5059,PAYLOAD,2023-03-16 22:12:17,15.08818572,6.79e-05,53.2171,161.4103,96.8243,263.2826,-0.00023327,-3.996e-05,0.0,0 STARLINK-5059,1 53912U 22119AC  23075.92520640 -.00003996  00000-0 -23327-3 0  9999,2 53912  53.2171 161.4103 0000679  96.8243 263.2826 15.08818572 27464,6917.946,95.439,540.281,539.341,0.0
53912.0,STARLINK-5059,PAYLOAD,2023-03-17 12:30:46,15.08829813,3.71e-05,53.2146,158.7369,102.2681,257.8352,0.0002197,3.21e-05,0.0,0 STARLINK-5059,1 53912U 22119AC  23076.52137261  .00003210  00000-0  21970-3 0  9998,2 53912  53.2146 158.7369 0000371 102.2681 257.8352 15.08829813 27133,6917.912,95.438,540.033,539.52,0.0
53912.0,STARLINK-5059,PAYLOAD,2023-03-18 13:56:57,15.08833811,3.95e-05,53.2163,153.9788,97.8417,262.262,0.00035021,5.289e-05,0.0,0 STARLINK-5059,1 53912U 22119AC  23077.58121718  .00005289  00000-0  35021-3 0  9995,2 53912  53.2163 153.9788 0000395  97.8417 262.2620 15.08833811 27294,6917.899,95.438,540.038,539.491,0.0
53912.0,STARLINK-5059,PAYLOAD,2023-03-18 21:53:52,15.08838472,4.68e-05,53.2167,152.492,95.2721,264.8324,0.00021652,3.16e-05,0.0,0 STARLINK-5059,1 53912U 22119AC  23077.91241515  .00003160  00000-0  21652-3 0  9991,2 53912  53.2167 152.4920 0000468  95.2721 264.8324 15.08838472 27760,6917.885,95.438,540.074,539.426,0.0
53912.0,STARLINK-5059,PAYLOAD,2023-03-19 12:12:19,15.08861846,6.47e-05,53.2163,149.8157,119.4132,240.6925,0.00045836,7.019e-05,0.0,0 STARLINK-5059,1 53912U 22119AC  23078.50856358  .00007019  00000-0  45836-3 0  9991,2 53912  53.2163 149.8157 0000647 119.4132 240.6925 15.08861846 27436,6917.814,95.436,540.126,539.231,0.0
53912.0,STARLINK-5059,PAYLOAD,2023-03-19 21:44:38,15.08856592,8.62e-05,53.2162,148.0319,52.6832,307.4239,0.00023257,3.417e-05,0.0,0 STARLINK-5059,1 53912U 22119AC  23078.90600280  .00003417  00000-0  23257-3 0  9997,2 53912  53.2162 148.0319 0000862  52.6832 307.4239 15.08856592 27498,6917.83,95.437,540.291,539.098,0.0
53912.0,STARLINK-5059,PAYLOAD,2023-03-20 12:03:07,15.08834504,7.22e-05,53.2163,145.3559,56.9426,303.1636,-0.00013777,-2.479e-05,0.0,0 STARLINK-5059,1 53912U 22119AC  23079.50217107 -.00002479  00000-0 -13777-3 0  9991,2 53912  53.2163 145.3559 0000722  56.9426 303.1636 15.08834504 27589,6917.897,95.438,540.262,539.263,0.0
53912.0,STARLINK-5059,PAYLOAD,2023-03-20 16:49:16,15.08845646,7.7e-05,53.216,144.4635,58.6246,301.4821,9.7488e-05,1.264e-05,0.0,0 STARLINK-5059,1 53912U 22119AC  23079.70088735  .00001264  00000-0  97488-4 0  9997,2 53912  53.2160 144.4635 0000770  58.6246 301.4821 15.08845646 27613,6917.863,95.437,540.261,539.195,0.0
53912.0,STARLINK-5059,PAYLOAD,2023-03-21 03:56:58,15.08836397,7.51e-05,53.2163,142.3814,75.3481,284.7594,2.1203e-05,5e-07,0.0,0 STARLINK-5059,1 53912U 22119AC  23080.16457140  .00000050  00000-0  21203-4 0  9993,2 53912  53.2163 142.3814 0000751  75.3481 284.7594 15.08836397 27688,6917.891,95.438,540.276,539.237,0.0
53912.0,STARLINK-5059,PAYLOAD,2023-03-21 10:18:31,15.08844576,9.85e-05,53.2153,141.1938,58.9437,301.1652,0.00012911,1.768e-05,0.0,0 STARLINK-5059,1 53912U 22119AC  23080.42952947  .00001768  00000-0  12911-3 0  9999,2 53912  53.2153 141.1938 0000985  58.9437 301.1652 15.08844576 28147,6917.866,95.437,540.413,539.05,0.0
53912.0,STARLINK-5059,PAYLOAD,2023-03-22 03:47:46,15.08838128,9.4e-05,53.2158,137.9236,66.1367,293.9724,0.00028803,4.299e-05,0.0,0 STARLINK-5059,1 53912U 22119AC  23081.15817461  .00004299  00000-0  28803-3 0  9990,2 53912  53.2158 137.9236 0000940  66.1367 293.9724 15.08838128 27839,6917.886,95.438,540.401,539.101,0.0
53912.0,STARLINK-5059,PAYLOAD,2023-03-22 14:55:27,15.08848211,9.42e-05,53.2169,135.8371,96.0216,264.0883,0.0002249,3.294e-05,0.0,0 STARLINK-5059,1 53912U 22119AC  23081.62184892  .00003294  00000-0  22490-3 0  9997,2 53912  53.2169 135.8371 0000942  96.0216 264.0883 15.08848211 28329,6917.855,95.437,540.372,539.069,0.0
53912.0,STARLINK-5059,PAYLOAD,2023-03-23 10:00:05,15.08848687,0.000116,53.216,132.2725,79.9142,280.1981,0.00019998,2.897e-05,0.0,0 STARLINK-5059,1 53912U 22119AC  23082.41672915  .00002897  00000-0  19998-3 0  9990,2 53912  53.2160 132.2725 0001160  79.9142 280.1981 15.08848687 28027,6917.854,95.437,540.521,538.916,0.0
53912.0,STARLINK-5059,PAYLOAD,2023-03-24 09:50:51,15.08885394,0.000116,53.2151,127.8057,113.3402,246.7712,0.00090721,0.00014198,0.0,0 STARLINK-5059,1 53912U 22119AC  23083.41031369  .00014198  00000-0  90721-3 0  9993,2 53912  53.2151 127.8057 0001160 113.3402 246.7712 15.08885394 28179,6917.742,95.435,540.409,538.804,0.0
53912.0,STARLINK-5059,PAYLOAD,2023-03-24 19:23:11,15.08823506,0.0001817,53.2169,126.0266,80.7361,279.3837,-0.00050071,-8.245e-05,0.0,0 STARLINK-5059,1 53912U 22119AC  23083.80776901 -.00008245  00000-0 -50071-3 0  9996,2 53912  53.2169 126.0266 0001817  80.7361 279.3837 15.08823506 28235,6917.931,95.439,541.053,538.539,0.0
53912.0,STARLINK-5059,PAYLOAD,2023-03-25 11:17:04,15.08805294,0.0001402,53.2172,123.0549,90.7981,269.3172,-0.00047267,-7.795e-05,0.0,0 STARLINK-5059,1 53912U 22119AC  23084.47019115 -.00007795  00000-0 -47267-3 0  9999,2 53912  53.2172 123.0549 0001402  90.7981 269.3172 15.08805294 28335,6917.986,95.44,540.821,538.882,0.0
53912.0,STARLINK-5059,PAYLOAD,2023-03-25 19:14:00,15.08811908,0.0001479,53.2189,121.5705,103.5758,256.5399,-0.00029801,-5.024e-05,0.0,0 STARLINK-5059,1 53912U 22119AC  23084.80139210 -.00005024  00000-0 -29801-3 0  9992,2 53912  53.2189 121.5705 0001479 103.5758 256.5399 15.08811908 28382,6917.966,95.439,540.854,538.808,0.0
53912.0,STARLINK-5059,PAYLOAD,2023-03-26 11:07:51,15.08839765,0.0001169,53.2164,118.5929,80.8581,279.2543,-2.5382e-05,-6.92e-06,0.0,0 STARLINK-5059,1 53912U 22119AC  23085.46378609 -.00000692  00000-0 -25382-4 0  9999,2 53912  53.2164 118.5929 0001169  80.8581 279.2543 15.08839765 28481,6917.881,95.438,540.555,538.937,0.0
53912.0,STARLINK-5059,PAYLOAD,2023-03-26 12:43:14,15.08836417,0.000121,53.216,118.2953,75.4566,284.656,0.00031883,4.789e-05,0.0,0 STARLINK-5059,1 53912U 22119AC  23085.53003144  .00004789  00000-0  31883-3 0  9997,2 53912  53.2160 118.2953 0001210  75.4566 284.6560 15.08836417 28919,6917.891,95.438,540.593,538.919,0.0
53912.0,STARLINK-5059,PAYLOAD,2023-03-27 10:58:38,15.08878616,0.00014,53.2153,114.132,68.3791,291.735,0.0014606,0.00023058,0.0,0 STARLINK-5059,1 53912U 22119AC  23086.45738553  .00023058  00000-0  14606-2 0  9991,2 53912  53.2153 114.1320 0001400  68.3791 291.7350 15.08878616 28638,6917.762,95.435,540.596,538.659,0.0
53912.0,STARLINK-5059,PAYLOAD,2023-03-27 18:55:33,15.08859816,0.0001227,53.2157,112.6448,73.3881,286.7246,0.00043064,6.576e-05,0.0,0 STARLINK-5059,1 53912U 22119AC  23086.78858346  .00006576  00000-0  43064-3 0  9997,2 53912  53.2157 112.6448 0001227  73.3881 286.7246 15.08859816 28683,6917.82,95.436,540.534,538.836,0.0
53912.0,STARLINK-5059,PAYLOAD,2023-03-28 09:14:01,15.0886218,0.0001438,53.2159,109.9686,73.6893,286.4257,0.0005354,8.248e-05,0.0,0 STARLINK-5059,1 53912U 22119AC  23087.38473874  .00008248  00000-0  53540-3 0  9991,2 53912  53.2159 109.9686 0001438  73.6893 286.4257 15.08862180 29192,6917.813,95.436,540.672,538.683,0.0
53912.0,STARLINK-5059,PAYLOAD,2023-03-28 18:46:20,15.08858251,0.0001704,53.2154,108.1853,72.6866,287.4313,0.00077046,0.00012001,0.0,0 STARLINK-5059,1 53912U 22119AC  23087.78217883  .00012001  00000-0  77046-3 0  9990,2 53912  53.2154 108.1853 0001704  72.6866 287.4313 15.08858251 28837,6917.825,95.436,540.868,538.511,0.0
53912.0,STARLINK-5059,PAYLOAD,2023-03-29 05:54:02,15.08847769,0.0001638,53.2164,106.1033,79.4973,280.6204,0.00031135,4.672e-05,0.0,0 STARLINK-5059,1 53912U 22119AC  23088.24585842  .00004672  00000-0  31135-3 0  9999,2 53912  53.2164 106.1033 0001638  79.4973 280.6204 15.08847769 28900,6917.857,95.437,540.855,538.588,0.0
53912.0,STARLINK-5059,PAYLOAD,2023-03-29 12:15:34,15.08857129,0.0001696,53.2164,104.9145,74.1528,285.9651,0.00032095,4.826e-05,0.0,0 STARLINK-5059,1 53912U 22119AC  23088.51081493  .00004826  00000-0  32095-3 0  9999,2 53912  53.2164 104.9145 0001696  74.1528 285.9651 15.08857129 29368,6917.828,95.436,540.866,538.52,0.0
53912.0,STARLINK-5059,PAYLOAD,2023-03-29 18:37:07,15.088451,0.0001218,53.217,103.7251,77.7336,282.3793,9.8732e-05,1.284e-05,0.0,0 STARLINK-5059,1 53912U 22119AC  23088.77577598  .00001284  00000-0  98732-4 0  9999,2 53912  53.2170 103.7251 0001218  77.7336 282.3793 15.08845100 29405,6917.865,95.437,540.572,538.887,0.0
53912.0,STARLINK-5059,PAYLOAD,2023-03-30 04:09:26,15.08841894,0.0001591,53.2165,101.9415,78.6194,281.4976,5.0141e-05,5.1e-06,0.0,0 STARLINK-5059,1 53912U 22119AC  23089.17321956  .00000510  00000-0  50141-4 0  9992,2 53912  53.2165 101.9415 0001591  78.6194 281.4976 15.08841894 29046,6917.875,95.437,540.84,538.639,0.0
53912.0,STARLINK-5059,PAYLOAD,2023-03-30 12:06:21,15.08849495,0.0001543,53.2166,100.4532,89.4438,270.6731,0.00021287,3.102e-05,0.0,0 STARLINK-5059,1 53912U 22119AC  23089.50441555  .00003102  00000-0  21287-3 0  9995,2 53912  53.2166 100.4532 0001543  89.4438 270.6731 15.08849495 29515,6917.851,95.437,540.784,538.649,0.0
53912.0,STARLINK-5059,PAYLOAD,2023-03-31 10:21:45,15.08851061,0.0001448,53.2175,96.2897,89.9638,270.152,0.00017346,2.475e-05,0.0,0 STARLINK-5059,1 53912U 22119AC  23090.43177411  .00002475  00000-0  17346-3 0  9999,2 53912  53.2175  96.2897 0001448  89.9638 270.1520 15.08851061 29234,6917.847,95.437,540.713,538.71,0.0
